OBJECT_NAME,OBJECT_ID,EPOCH,MEAN_MOTION,ECCENTRICITY,INCLINATION,RA_OF_ASC_NODE,ARG_OF_PERICENTER,MEAN_ANOMALY,EPHEMERIS_TYPE,CLASSIFICATION_TYPE,NORAD_CAT_ID,ELEMENT_SET_NO,REV_AT_EPOCH,BSTAR,MEAN_MOTION_DOT,MEAN_MOTION_DDOT
STARLINK-35227,2025-211C,2026-06-10T14:56:43.686240,15.05672448,.00024059,97.3753,204.8601,105.3026,254.8467,0,U,65654,999,4102,.17524674E-3,.2473E-4,0
STARLINK-35240,2025-211D,2026-06-10T13:32:59.204832,15.05659617,.00018499,97.3777,204.7868,119.4616,240.6796,0,U,65655,999,4101,.19041414E-3,.2692E-4,0
STARLINK-35344,2025-211E,2026-06-10T13:25:00.802848,15.05658235,.00016679,97.3765,204.7943,93.8131,266.3288,0,U,65656,999,4101,.26848977E-3,.3819E-4,0
STARLINK-34540,2025-211F,2026-06-10T14:52:45.109920,15.05664867,.00012396,97.3768,204.8646,149.1313,210.9987,0,U,65657,999,4102,.21005353E-3,.2976E-4,0
STARLINK-35282,2025-211G,2026-06-10T14:44:45.894912,15.05656743,.00013179,97.3761,204.8725,121.0162,239.1195,0,U,65658,999,4102,.93926667E-4,.1298E-4,0
STARLINK-35120,2025-211H,2026-06-10T14:48:44.998272,15.05657427,.00012026,97.3774,204.8698,133.8932,226.2395,0,U,65659,999,4102,.19241506E-4,.22E-5,0
STARLINK-35246,2025-211J,2026-06-10T14:40:46.640352,15.05663513,.00017404,97.3765,204.8773,98.8077,261.3348,0,U,65660,999,4102,.60425437E-4,.815E-5,0
STARLINK-35220,2025-211K,2026-06-10T14:36:47.376288,15.05663823,.00018613,97.3782,204.8796,103.7090,256.4345,0,U,65661,999,4102,-.2455576E-5,-.93E-6,0
STARLINK-35176,2025-211L,2026-06-10T14:32:48.134688,15.05662428,.00024589,97.3773,204.8828,137.4212,222.7206,0,U,65662,999,4102,.37512367E-3,.5361E-4,0
STARLINK-35190,2025-211M,2026-06-10T14:28:47.660160,15.05698155,.00033344,97.3721,204.8906,128.8310,231.3215,0,U,65663,999,4102,.7504035E-3,.10801E-3,0
STARLINK-35201,2025-211N,2026-06-10T14:24:49.821696,15.05664240,.00019922,97.3772,204.8938,114.5959,245.5476,0,U,65664,999,4102,.8242297E-4,.1132E-4,0
STARLINK-35115,2025-211P,2026-06-10T14:20:51.353376,15.05651833,.0001337,97.3767,204.8969,97.7050,262.4329,0,U,65665,999,4102,.35564247E-3,.5078E-4,0
STARLINK-35181,2025-211Q,2026-06-10T14:16:51.450816,15.05659088,.00012828,97.3773,204.9011,105.5203,254.6166,0,U,65666,999,4102,.23905435E-3,.3394E-4,0
STARLINK-35361,2025-211R,2026-06-10T14:12:52.387200,15.05657588,.00005499,97.3803,204.9054,138.7702,221.3567,0,U,65667,999,4102,.28234052E-3,.4019E-4,0
STARLINK-35351,2025-211S,2026-06-10T14:08:53.211264,15.05660254,.00020626,97.3775,204.9101,95.5241,264.6221,0,U,65668,999,4102,.42922516E-3,.6143E-4,0
STARLINK-35353,2025-211T,2026-06-10T14:04:54.018912,15.05657977,.00024232,97.3778,204.9132,104.7791,255.3705,0,U,65669,999,4102,.26190206E-3,.3724E-4,0
STARLINK-35359,2025-211U,2026-06-10T14:00:54.747936,15.05659939,.00023639,97.3778,204.9167,109.0856,251.0628,0,U,65670,999,4102,.28284802E-3,.4027E-4,0
STARLINK-35194,2025-211V,2026-06-10T13:52:56.117856,15.05657622,.00012594,97.3772,204.9252,153.2276,206.9017,0,U,65671,999,4102,.79271738E-4,.1087E-4,0
STARLINK-35198,2025-211W,2026-06-10T13:56:55.600512,15.05660208,.00022993,97.3772,204.9207,100.6785,259.4701,0,U,65672,999,4102,.27526964E-3,.3917E-4,0
STARLINK-35177,2025-211X,2026-06-10T13:44:57.823008,15.05659575,.00016619,97.3768,204.9320,103.4659,256.6754,0,U,65673,999,4102,.19584786E-3,.277E-4,0
STARLINK-35254,2025-211Y,2026-06-10T15:16:40.904256,15.05656135,.00025032,97.3758,204.9991,94.6035,265.5478,0,U,65674,999,4103,.1796112E-3,.2535E-4,0
STARLINK-34749,2025-211Z,2026-06-10T13:48:57.418848,15.05659573,.00032095,97.3775,204.9281,90.2905,269.8690,0,U,65675,999,4102,.25058772E-3,.3561E-4,0
STARLINK-35189,2025-212A,2026-06-10T14:40:54.952032,15.30218221,.00011579,53.1583,273.8284,99.9970,260.1162,0,U,65676,999,4142,.65638927E-3,.19142E-3,0
STARLINK-35222,2025-212B,2026-06-10T11:55:36.373728,15.30207394,.00014068,53.1611,274.5315,84.4390,275.6772,0,U,65677,999,4146,.76226771E-3,.2229E-3,0
STARLINK-35233,2025-212C,2026-06-10T14:16:45.890112,15.30200733,.00006924,53.1593,274.4410,113.5294,246.5780,0,U,65678,999,4147,.59022095E-3,.17162E-3,0
STARLINK-35205,2025-212D,2026-06-10T14:57:52.898688,15.34406471,.00011671,53.1595,273.9033,88.9042,271.2095,0,U,65679,999,4142,.83256957E-3,.27864E-3,0
STARLINK-35070,2025-212E,2026-06-10T14:31:48.185184,15.30197372,.00011849,53.1588,273.7903,116.7318,243.3804,0,U,65680,999,4147,.41395759E-3,.1192E-3,0
STARLINK-35230,2025-212F,2026-06-10T14:00:01.999872,15.34386808,.00008658,53.1588,273.9753,90.0464,106.1610,0,U,65681,999,587,-.12771784E-3,-.4687E-4,0
STARLINK-35235,2025-212G,2026-06-10T14:29:55.935168,15.34395996,.00012284,53.1577,272.3640,89.5735,270.5408,0,U,65682,999,4144,.78531962E-3,.26247E-3,0
STARLINK-34886,2025-212H,2026-06-10T14:26:25.950336,15.31720481,.00011128,53.1586,273.7668,98.1310,261.9817,0,U,65683,999,4142,.65730704E-3,.201E-3,0
