STARLINK-35227          
1 65654U 25211C   26161.62272785  .00002473  00000+0  17525-3 0  9990
2 65654  97.3753 204.8601 0002405 105.3026 254.8467 15.05672448 41026
STARLINK-35240          
1 65655U 25211D   26161.56457413  .00002692  00000+0  19041-3 0  9995
2 65655  97.3777 204.7868 0001849 119.4616 240.6796 15.05659617 41019
STARLINK-35344          
1 65656U 25211E   26161.55903707  .00003819  00000+0  26849-3 0  9993
2 65656  97.3765 204.7943 0001667  93.8131 266.3288 15.05658235 41012
STARLINK-34540          
1 65657U 25211F   26161.61996655  .00002976  00000+0  21005-3 0  9997
2 65657  97.3768 204.8646 0001239 149.1313 210.9987 15.05664867 41029
STARLINK-35282          
1 65658U 25211G   26161.61442008  .00001298  00000+0  93927-4 0  9995
2 65658  97.3761 204.8725 0001317 121.0162 239.1195 15.05656743 41027
STARLINK-35120          
1 65659U 25211H   26161.61718748  .00000220  00000+0  19242-4 0  9995
2 65659  97.3774 204.8698 0001202 133.8932 226.2395 15.05657427 41029
STARLINK-35246          
1 65660U 25211J   26161.61165093  .00000815  00000+0  60425-4 0  9995
2 65660  97.3765 204.8773 0001740  98.8077 261.3348 15.05663513 41023
STARLINK-35220          
1 65661U 25211K   26161.60888167 -.00000093  00000+0 -24556-5 0  9995
2 65661  97.3782 204.8796 0001861 103.7090 256.4345 15.05663823 41029
STARLINK-35176          
1 65662U 25211L   26161.60611267  .00005361  00000+0  37512-3 0  9996
2 65662  97.3773 204.8828 0002458 137.4212 222.7206 15.05662428 41021
STARLINK-35190          
1 65663U 25211M   26161.60332940  .00010801  00000+0  75040-3 0  9998
2 65663  97.3721 204.8906 0003334 128.8310 231.3215 15.05698155 41021
STARLINK-35201          
1 65664U 25211N   26161.60057664  .00001132  00000+0  82423-4 0  9997
2 65664  97.3772 204.8938 0001992 114.5959 245.5476 15.05664240 41026
STARLINK-35115          
1 65665U 25211P   26161.59781659  .00005078  00000+0  35564-3 0  9990
2 65665  97.3767 204.8969 0001337  97.7050 262.4329 15.05651833 41021
STARLINK-35181          
1 65666U 25211Q   26161.59503994  .00003394  00000+0  23905-3 0  9990
2 65666  97.3773 204.9011 0001282 105.5203 254.6166 15.05659088 41027
STARLINK-35361          
1 65667U 25211R   26161.59227300  .00004019  00000+0  28234-3 0  9990
2 65667  97.3803 204.9054 0000549 138.7702 221.3567 15.05657588 41025
STARLINK-35351          
1 65668U 25211S   26161.58950476  .00006143  00000+0  42923-3 0  9998
2 65668  97.3775 204.9101 0002062  95.5241 264.6221 15.05660254 41028
STARLINK-35353          
1 65669U 25211T   26161.58673633  .00003724  00000+0  26190-3 0  9996
2 65669  97.3778 204.9132 0002423 104.7791 255.3705 15.05657977 41022
STARLINK-35359          
1 65670U 25211U   26161.58396699  .00004027  00000+0  28285-3 0  9996
2 65670  97.3778 204.9167 0002363 109.0856 251.0628 15.05659939 41022
STARLINK-35194          
1 65671U 25211V   26161.57842729  .00001087  00000+0  79272-4 0  9992
2 65671  97.3772 204.9252 0001259 153.2276 206.9017 15.05657622 41020
STARLINK-35198          
1 65672U 25211W   26161.58119908  .00003917  00000+0  27527-3 0  9999
2 65672  97.3772 204.9207 0002299 100.6785 259.4701 15.05660208 41024
STARLINK-35177          
1 65673U 25211X   26161.57289147  .00002770  00000+0  19585-3 0  9993
2 65673  97.3768 204.9320 0001661 103.4659 256.6754 15.05659575 41021
STARLINK-35254          
1 65674U 25211Y   26161.63658454  .00002535  00000+0  17961-3 0  9997
2 65674  97.3758 204.9991 0002503  94.6035 265.5478 15.05656135 41032
STARLINK-34749          
1 65675U 25211Z   26161.57566457  .00003561  00000+0  25059-3 0  9999
2 65675  97.3775 204.9281 0003209  90.2905 269.8690 15.05659573 41027
STARLINK-35189          
1 65676U 25212A   26161.61174713  .00019142  00000+0  65639-3 0  9996
2 65676  53.1583 273.8284 0001157  99.9970 260.1162 15.30218221 41422
STARLINK-35222          
1 65677U 25212B   26161.49694877  .00022290  00000+0  76227-3 0  9994
2 65677  53.1611 274.5315 0001406  84.4390 275.6772 15.30207394 41461
STARLINK-35233          
1 65678U 25212C   26161.59497558  .00017162  00000+0  59022-3 0  9999
2 65678  53.1593 274.4410 0000692 113.5294 246.5780 15.30200733 41476
STARLINK-35205          
1 65679U 25212D   26161.62352892  .00027864  00000+0  83257-3 0  9992
2 65679  53.1595 273.9033 0001167  88.9042 271.2095 15.34406471 41428
STARLINK-35070          
1 65680U 25212E   26161.60541881  .00011920  00000+0  41396-3 0  9994
2 65680  53.1588 273.7903 0001184 116.7318 243.3804 15.30197372 41477
STARLINK-35230          
1 65681U 25212F   26161.58335648 -.00004687  00000+0 -12772-3 0  9994
2 65681  53.1588 273.9753 0000865  90.0464 106.1610 15.34386808  5877
STARLINK-35235          
1 65682U 25212G   26161.60411962  .00026247  00000+0  78532-3 0  9992
2 65682  53.1577 272.3640 0001228  89.5735 270.5408 15.34395996 41444
STARLINK-34886          
1 65683U 25212H   26161.60168924  .00020100  00000+0  65731-3 0  9999
2 65683  53.1586 273.7668 0001112  98.1310 261.9817 15.31720481 41421
